NORAD_CAT_ID,OBJECT_NAME,OBJECT_TYPE,EPOCH,MEAN_MOTION,ECCENTRICITY,INCLINATION,RA_OF_ASC_NODE,ARG_OF_PERICENTER,MEAN_ANOMALY,BSTAR,MEAN_MOTION_DOT,MEAN_MOTION_DDOT,TLE_LINE0,TLE_LINE1,TLE_LINE2,SEMIMAJOR_AXIS,PERIOD,APOGEE,PERIGEE,DECAYED
54010.0,STARLINK-5127,PAYLOAD,2023-07-26 02:05:14,15.0883891,0.0001036,53.2162,182.5394,87.0785,273.0326,2.3327e-05,8.3e-07,0.0,0 STARLINK-5127,1 54010U 22125AY  23207.08697686  .00000083  00000-0  23327-4 0  9998,2 54010  53.2162 182.5394 0001036  87.0785 273.0326 15.08838910 45047,6917.884,95.438,540.465,539.032,0.0
54010.0,STARLINK-5127,PAYLOAD,2023-07-26 22:45:15,15.08838045,0.0001134,53.2157,178.673,99.4593,260.6527,6.106e-05,6.84e-06,0.0,0 STARLINK-5127,1 54010U 22125AY  23207.94809567  .00000684  00000-0  61060-4 0  9999,2 54010  53.2157 178.6730 0001134  99.4593 260.6527 15.08838045 45172,6917.886,95.438,540.536,538.967,0.0
54010.0,STARLINK-5127,PAYLOAD,2023-07-27 00:20:38,15.08837343,0.0001072,53.2158,178.3764,100.7737,259.3376,6.5151e-05,7.49e-06,0.0,0 STARLINK-5127,1 54010U 22125AY  23208.01433571  .00000749  00000-0  65151-4 0  9993,2 54010  53.2158 178.3764 0001072 100.7737 259.3376 15.08837343 45238,6917.889,95.438,540.495,539.012,0.0
54010.0,STARLINK-5127,PAYLOAD,2023-07-27 05:06:47,15.08840711,0.0001016,53.2156,177.4854,98.5423,261.5684,9.8249e-05,1.276e-05,0.0,0 STARLINK-5127,1 54010U 22125AY  23208.21305274  .00001276  00000-0  98249-4 0  9993,2 54010  53.2156 177.4854 0001016  98.5423 261.5684 15.08840711 45218,6917.878,95.438,540.446,539.04,0.0
54010.0,STARLINK-5127,PAYLOAD,2023-07-27 17:49:53,15.0882938,0.000107,53.2158,175.108,86.9348,273.1767,-7.4744e-06,-4.07e-06,0.0,0 STARLINK-5127,1 54010U 22125AY  23208.74298436 -.00000407  00000-0 -74744-5 0  9994,2 54010  53.2158 175.1080 0001070  86.9348 273.1767 15.08829380 45347,6917.913,95.438,540.518,539.038,0.0
54010.0,STARLINK-5127,PAYLOAD,2023-07-28 08:08:22,15.08827807,0.0001118,53.2163,172.431,91.1831,268.929,-3.7301e-05,-8.81e-06,0.0,0 STARLINK-5127,1 54010U 22125AY  23209.33915072 -.00000881  00000-0 -37301-4 0  9995,2 54010  53.2163 172.4310 0001118  91.1831 268.9290 15.08827807 45386,6917.918,95.438,540.556,539.009,0.0
54010.0,STARLINK-5127,PAYLOAD,2023-07-29 01:37:36,15.08836228,0.0001039,53.2167,169.1597,88.4152,271.6959,0.00013508,1.862e-05,0.0,0 STARLINK-5127,1 54010U 22125AY  23210.06778168  .00001862  00000-0  13508-3 0  9990,2 54010  53.2167 169.1597 0001039  88.4152 271.6959 15.08836228 45545,6917.892,95.438,540.476,539.038,0.0
54010.0,STARLINK-5127,PAYLOAD,2023-07-29 06:23:45,15.08845682,0.0001034,53.2166,168.2674,91.311,268.8001,7.6396e-05,9.28e-06,0.0,0 STARLINK-5127,1 54010U 22125AY  23210.26649779  .00000928  00000-0  76396-4 0  9994,2 54010  53.2166 168.2674 0001034  91.3110 268.8001 15.08845682 45575,6917.863,95.437,540.443,539.013,0.0
54010.0,STARLINK-5127,PAYLOAD,2023-07-30 01:28:23,15.08834143,0.0001056,53.2168,164.6988,85.1794,274.9319,0.00015096,2.115e-05,0.0,0 STARLINK-5127,1 54010U 22125AY  23211.06138461  .00002115  00000-0  15096-3 0  9993,2 54010  53.2168 164.6988 0001056  85.1794 274.9319 15.08834143 45691,6917.898,95.438,540.494,539.033,0.0
54010.0,STARLINK-5127,PAYLOAD,2023-07-30 06:14:32,15.08841212,0.0001099,53.2168,163.8066,84.7887,275.323,0.00015534,2.185e-05,0.0,0 STARLINK-5127,1 54010U 22125AY  23211.26010081  .00002185  00000-0  15534-3 0  9996,2 54010  53.2168 163.8066 0001099  84.7887 275.3230 15.08841212 45720,6917.877,95.437,540.502,538.981,0.0
54010.0,STARLINK-5127,PAYLOAD,2023-07-31 02:54:34,15.0883811,0.0001134,53.2165,159.94,83.3712,276.7409,4.5737e-06,-2.15e-06,0.0,0 STARLINK-5127,1 54010U 22125AY  23212.12122827 -.00000215  00000-0  45737-5 0  9997,2 54010  53.2165 159.9400 0001134  83.3712 276.7409 15.08838110 45857,6917.886,95.438,540.536,538.967,0.0
54010.0,STARLINK-5127,PAYLOAD,2023-07-31 14:02:15,15.08846013,0.0001213,53.2167,157.8581,86.1649,273.9482,-6.8132e-06,-3.96e-06,0.0,0 STARLINK-5127,1 54010U 22125AY  23212.58490277 -.00000396  00000-0 -68132-5 0  9999,2 54010  53.2167 157.8581 0001213  86.1649 273.9482 15.08846013 45923,6917.862,95.437,540.566,538.888,0.0
54010.0,STARLINK-5127,PAYLOAD,2023-08-02 02:36:07,15.08840309,0.0001217,53.2166,151.0199,93.4806,266.6325,2.1592e-05,5.6e-07,0.0,0 STARLINK-5127,1 54010U 22125AY  23214.10842591  .00000056  00000-0  21592-4 0  9998,2 54010  53.2166 151.0199 0001217  93.4806 266.6325 15.08840309 46156,6917.879,95.438,540.586,538.903,0.0
54010.0,STARLINK-5127,PAYLOAD,2023-08-04 02:17:43,15.08829602,9.9e-05,53.2165,142.0989,96.6776,263.4329,-2.687e-05,-7.15e-06,0.0,0 STARLINK-5127,1 54010U 22125AY  23216.09563823 -.00000715  00000-0 -26870-4 0  9994,2 54010  53.2165 142.0989 0000990  96.6776 263.4329 15.08829602 46455,6917.912,95.438,540.462,539.092,0.0
54010.0,STARLINK-5127,PAYLOAD,2023-08-05 02:08:29,15.08816283,0.0001185,53.2164,137.6369,97.7751,262.3376,0.00052477,8.068e-05,0.0,0 STARLINK-5127,1 54010U 22125AY  23217.08923092  .00008068  00000-0  52477-3 0  9990,2 54010  53.2164 137.6369 0001185  97.7751 262.3376 15.08816283 46606,6917.953,95.439,540.638,538.998,0.0
54010.0,STARLINK-5127,PAYLOAD,2023-08-06 01:59:15,15.08851537,9.9e-05,53.2167,133.1769,88.2163,271.8943,0.00023939,3.525e-05,0.0,0 STARLINK-5127,1 54010U 22125AY  23218.08281736  .00003525  00000-0  23939-3 0  9997,2 54010  53.2167 133.1769 0000990  88.2163 271.8943 15.08851537 46751,6917.845,95.437,540.395,539.025,0.0
54010.0,STARLINK-5127,PAYLOAD,2023-08-06 11:31:35,15.08830524,9.86e-05,53.2182,131.391,98.7574,261.353,3.5404e-05,2.76e-06,0.0,0 STARLINK-5127,1 54010U 22125AY  23218.48027651  .00000276  00000-0  35404-4 0  9996,2 54010  53.2182 131.3910 0000986  98.7574 261.3530 15.08830524 46819,6917.909,95.438,540.456,539.092,0.0
54010.0,STARLINK-5127,PAYLOAD,2023-08-07 00:14:42,15.08823718,8.82e-05,53.2173,129.0127,108.3616,251.7473,-0.00020679,-3.576e-05,0.0,0 STARLINK-5127,1 54010U 22125AY  23219.01021126 -.00003576  00000-0 -20679-3 0  9992,2 54010  53.2173 129.0127 0000882 108.3616 251.7473 15.08823718 46897,6917.93,95.439,540.405,539.185,0.0
54010.0,STARLINK-5127,PAYLOAD,2023-08-07 03:25:28,15.08830297,0.0001012,53.217,128.4183,105.6547,254.4557,-0.00015013,-2.676e-05,0.0,0 STARLINK-5127,1 54010U 22125AY  23219.14268657 -.00002676  00000-0 -15013-3 0  9994,2 54010  53.2170 128.4183 0001012 105.6547 254.4557 15.08830297 46914,6917.91,95.438,540.475,539.075,0.0
54010.0,STARLINK-5127,PAYLOAD,2023-08-07 11:22:23,15.08839277,0.0001025,53.2173,126.9338,100.2225,259.8883,-6.647e-05,-1.345e-05,0.0,0 STARLINK-5127,1 54010U 22125AY  23219.47388009 -.00001345  00000-0 -66470-4 0  9990,2 54010  53.2173 126.9338 0001025 100.2225 259.8883 15.08839277 46963,6917.883,95.438,540.457,539.039,0.0
54010.0,STARLINK-5127,PAYLOAD,2023-08-08 00:05:27,15.08852065,0.0001099,53.2174,124.5539,97.5138,262.5979,1.1804e-05,-1e-06,0.0,0 STARLINK-5127,1 54010U 22125AY  23220.00379057 -.00000100  00000-0  11804-4 0  9992,2 54010  53.2174 124.5539 0001099  97.5138 262.5979 15.08852065 47040,6917.844,95.437,540.469,538.948,0.0
54010.0,STARLINK-5127,PAYLOAD,2023-08-09 03:07:00,15.08843673,0.0001011,53.2172,119.499,97.6813,262.4294,0.00026286,3.898e-05,0.0,0 STARLINK-5127,1 54010U 22125AY  23221.12987181  .00003898  00000-0  26286-3 0  9994,2 54010  53.2172 119.4990 0001011  97.6813 262.4294 15.08843673 47210,6917.869,95.437,540.434,539.035,0.0
54010.0,STARLINK-5127,PAYLOAD,2023-08-10 02:57:48,15.08842118,0.0001631,53.2184,115.0361,89.7724,270.3455,5.323e-06,-2.03e-06,0.0,0 STARLINK-5127,1 54010U 22125AY  23222.12348070 -.00000203  00000-0  53230-5 0  9992,2 54010  53.2184 115.0361 0001631  89.7724 270.3455 15.08842118 47364,6917.874,95.437,540.867,538.611,0.0
54010.0,STARLINK-5127,PAYLOAD,2023-08-10 17:16:15,15.08889964,8.97e-05,53.2164,112.3602,96.2573,263.8522,-0.00074534,-0.00012146,0.0,0 STARLINK-5127,1 54010U 22125AY  23222.71962209 -.00012146  00000-0 -74534-3 0  9991,2 54010  53.2164 112.3602 0000897  96.2573 263.8522 15.08889964 47450,6917.728,95.434,540.213,538.972,0.0
54010.0,STARLINK-5127,PAYLOAD,2023-08-11 02:48:35,15.08839939,0.000106,53.2158,110.5792,92.4372,267.6741,0.0001488,2.081e-05,0.0,0 STARLINK-5127,1 54010U 22125AY  23223.11707455  .00002081  00000-0  14880-3 0  9999,2 54010  53.2158 110.5792 0001060  92.4372 267.6741 15.08839939 47510,6917.881,95.438,540.479,539.012,0.0
54010.0,STARLINK-5127,PAYLOAD,2023-08-11 09:10:08,15.08834862,0.0001188,53.2169,109.388,83.526,276.5867,9.4566e-05,1.217e-05,0.0,0 STARLINK-5127,1 54010U 22125AY  23223.38204038  .00001217  00000-0  94566-4 0  9997,2 54010  53.2169 109.3880 0001188  83.5260 276.5867 15.08834862 47556,6917.896,95.438,540.583,538.939,0.0
54010.0,STARLINK-5127,PAYLOAD,2023-08-12 02:39:22,15.0884782,0.0001115,53.2169,106.1181,81.0121,279.0998,0.00012541,1.709e-05,0.0,0 STARLINK-5127,1 54010U 22125AY  23224.11067372  .00001709  00000-0  12541-3 0  9995,2 54010  53.2169 106.1181 0001115  81.0121 279.0998 15.08847820 47667,6917.856,95.437,540.493,538.95,0.0
54010.0,STARLINK-5127,PAYLOAD,2023-08-12 16:57:50,15.0883849,0.0001067,53.2157,103.4417,92.622,267.4894,-2.1784e-05,-6.34e-06,0.0,0 STARLINK-5127,1 54010U 22125AY  23224.70683784 -.00000634  00000-0 -21784-4 0  9999,2 54010  53.2157 103.4417 0001067  92.6220 267.4894 15.08838490 47759,6917.885,95.438,540.488,539.012,0.0
54010.0,STARLINK-5127,PAYLOAD,2023-08-14 00:45:33,15.08841493,0.0001116,53.2177,97.4932,81.8229,278.289,0.00012524,1.706e-05,0.0,0 STARLINK-5127,1 54010U 22125AY  23226.03164132  .00001706  00000-0  12524-3 0  9998,2 54010  53.2177  97.4932 0001116  81.8229 278.2890 15.08841493 47954,6917.876,95.437,540.513,538.969,0.0
54010.0,STARLINK-5127,PAYLOAD,2023-08-16 00:27:07,15.08844447,0.0001096,53.2176,88.5728,81.5661,278.5456,6.1756e-05,6.95e-06,0.0,0 STARLINK-5127,1 54010U 22125AY  23228.01884006  .00000695  00000-0  61756-4 0  9995,2 54010  53.2176  88.5728 0001096  81.5661 278.5456 15.08844447 48258,6917.867,95.437,540.49,538.974,0.0
